[{"OBJECT_NAME":"STARLINK-3256","OBJECT_ID":"2021-125AY","EPOCH":"2026-03-09T17:19:44.965344","MEAN_MOTION":15.08835467,"ECCENTRICITY":0.00011136,"INCLINATION":53.2159,"RA_OF_ASC_NODE":238.975,"ARG_OF_PERICENTER":98.6537,"MEAN_ANOMALY":261.4581,"EPHEMERIS_TYPE":0,"CLASSIFICATION_TYPE":"U","NORAD_CAT_ID":50202,"ELEMENT_SET_NO":999,"REV_AT_EPOCH":23673,"BSTAR":1.6752708e-5,"MEAN_MOTION_DOT":-2.1e-7,"MEAN_MOTION_DDOT":0},{"OBJECT_NAME":"CZ-6A DEB","OBJECT_ID":"2024-140AAU","EPOCH":"2026-03-09T16:48:50.985504","MEAN_MOTION":14.99127941,"ECCENTRICITY":0.00591225,"INCLINATION":89.196,"RA_OF_ASC_NODE":296.0099,"ARG_OF_PERICENTER":104.8686,"MEAN_ANOMALY":255.9106,"EPHEMERIS_TYPE":0,"CLASSIFICATION_TYPE":"U","NORAD_CAT_ID":61486,"ELEMENT_SET_NO":999,"REV_AT_EPOCH":8015,"BSTAR":0.0049724997,"MEAN_MOTION_DOT":0.00063139,"MEAN_MOTION_DDOT":0}]
